$$SOE
2459580.500000000, A.D. 2022-Jan-01 00:00:00.0000, -1.615711255260583E+08, -3.702282606157184E+08, -1.194699011128277E+06,
2459587.500000000, A.D. 2022-Jan-08 00:00:00.0000, -1.520842400384501E+08, -3.758930166831701E+08, -1.880748698989660E+06,
2459594.500000000, A.D. 2022-Jan-15 00:00:00.0000, -1.424866306681343E+08, -3.812840973396916E+08, -2.565429593094617E+06,
2459601.500000000, A.D. 2022-Jan-22 00:00:00.0000, -1.327864591805492E+08, -3.864007323247724E+08, -3.248264779815972E+06,
2459608.500000000, A.D. 2022-Jan-29 00:00:00.0000, -1.229917835708137E+08, -3.912423828187438E+08, -3.928789454452991E+06,
2459615.500000000, A.D. 2022-Feb-05 00:00:00.0000, -1.131105555316103E+08, -3.958087326036070E+08, -4.606550775724709E+06,
2459622.500000000, A.D. 2022-Feb-12 00:00:00.0000, -1.031506163204918E+08, -4.000996804393274E+08, -5.281107977457702E+06,
2459629.500000000, A.D. 2022-Feb-19 00:00:00.0000, -9.311969231986257E+07, -4.041153313109289E+08, -5.952032424824357E+06,
2459636.500000000, A.D. 2022-Feb-26 00:00:00.0000, -8.302539156963529E+07, -4.078559872893466E+08, -6.618907556360066E+06,
2459643.500000000, A.D. 2022-Mar-05 00:00:00.0000, -7.287520108205950E+07, -4.113221386394698E+08, -7.281328779214084E+06,
2459650.500000000, A.D. 2022-Mar-12 00:00:00.0000, -6.267648468594967E+07, -4.145144552548181E+08, -7.938903345785707E+06,
2459657.500000000, A.D. 2022-Mar-19 00:00:00.0000, -5.243648129862831E+07, -4.174337784024696E+08, -8.591250218382895E+06,
2459664.500000000, A.D. 2022-Mar-26 00:00:00.0000, -4.216230357352415E+07, -4.200811127945846E+08, -9.237999926736772E+06,
2459671.500000000, A.D. 2022-Apr-02 00:00:00.0000, -3.186093682784078E+07, -4.224576190512973E+08, -9.878794431212723E+06,
2459678.500000000, A.D. 2022-Apr-09 00:00:00.0000, -2.153923795252513E+07, -4.245646065565593E+08, -1.051328701806739E+07,
2459685.500000000, A.D. 2022-Apr-16 00:00:00.0000, -1.120393392320638E+07, -4.264035260559895E+08, -1.114114220762312E+07,
2459692.500000000, A.D. 2022-Apr-23 00:00:00.0000, -8.616211573883219E+05, -4.279759609119511E+08, -1.176203547175151E+07,
2459699.500000000, A.D. 2022-Apr-30 00:00:00.0000, 9.481232436347229E+06, -4.292836192576706E+08, -1.237565277398232E+07,
2459706.500000000, A.D. 2022-May-07 00:00:00.0000, 1.981828580549629E+07, -4.303283290213128E+08, -1.298169037591857E+07,
2459713.500000000, A.D. 2022-May-14 00:00:00.0000, 3.014332491102484E+07, -4.311120327825154E+08, -1.357985479056212E+07,
2459720.500000000, A.D. 2022-May-21 00:00:00.0000, 4.045026268527365E+07, -4.316367817042789E+08, -1.416986263549778E+07,
2459727.500000000, A.D. 2022-May-28 00:00:00.0000, 5.073313833002060E+07, -4.319047294990851E+08, -1.475144042143288E+07,
2459734.500000000, A.D. 2022-Jun-04 00:00:00.0000, 6.098611624818482E+07, -4.319181267399259E+08, -1.532432432794726E+07,
2459741.500000000, A.D. 2022-Jun-11 00:00:00.0000, 7.120348476901598E+07, -4.316793155095167E+08, -1.588825998027685E+07,
2459748.500000000, A.D. 2022-Jun-18 00:00:00.0000, 8.137965472017881E+07, -4.311907243680242E+08, -1.644300223024505E+07,
2459755.500000000, A.D. 2022-Jun-25 00:00:00.0000, 9.150915789077391E+07, -4.304548636653404E+08, -1.698831494733387E+07,
2459762.500000000, A.D. 2022-Jul-02 00:00:00.0000, 1.015866455334864E+08, -4.294743212567315E+08, -1.752397083802176E+07,
2459769.500000000, A.D. 2022-Jul-09 00:00:00.0000, 1.116068873092983E+08, -4.282517584383180E+08, -1.804975131502980E+07,
2459776.500000000, A.D. 2022-Jul-16 00:00:00.0000, 1.215647706316241E+08, -4.267899050129297E+08, -1.856544632311803E+07,
2459783.500000000, A.D. 2022-Jul-23 00:00:00.0000, 1.314552982225274E+08, -4.250915534012033E+08, -1.907085391356859E+07,
2459790.500000000, A.D. 2022-Jul-30 00:00:00.0000, 1.412735839759201E+08, -4.231595551435370E+08, -1.956577984932613E+07,
2459797.500000000, A.D. 2022-Aug-06 00:00:00.0000, 1.510148507376111E+08, -4.209968191377302E+08, -2.005003751816469E+07,
2459804.500000000, A.D. 2022-Aug-13 00:00:00.0000, 1.606744291890824E+08, -4.186063088527997E+08, -2.052344785346240E+07,
2459811.500000000, A.D. 2022-Aug-20 00:00:00.0000, 1.702477562739877E+08, -4.159910390173062E+08, -2.098583915988192E+07,
2459818.500000000, A.D. 2022-Aug-27 00:00:00.0000, 1.797303732427199E+08, -4.131540725030100E+08, -2.143704690965024E+07,
2459825.500000000, A.D. 2022-Sep-03 00:00:00.0000, 1.891179235693831E+08, -4.100985175082684E+08, -2.187691354126498E+07,
2459832.500000000, A.D. 2022-Sep-10 00:00:00.0000, 1.984061508369578E+08, -4.068275250107927E+08, -2.230528826698515E+07,
2459839.500000000, A.D. 2022-Sep-17 00:00:00.0000, 2.075908966252353E+08, -4.033442864845709E+08, -2.272202689203960E+07,
2459846.500000000, A.D. 2022-Sep-24 00:00:00.0000, 2.166680984670892E+08, -3.996520319246696E+08, -2.312699165540740E+07,
2459853.500000000, A.D. 2022-Oct-01 00:00:00.0000, 2.256337881184618E+08, -3.957540281956077E+08, -2.352005111622939E+07,
2459860.500000000, A.D. 2022-Oct-08 00:00:00.0000, 2.344840905545533E+08, -3.916535771758331E+08, -2.390108008079559E+07,
2459867.500000000, A.D. 2022-Oct-15 00:00:00.0000, 2.432152227645105E+08, -3.873540124944266E+08, -2.426995938690752E+07,
2459874.500000000, A.D. 2022-Oct-22 00:00:00.0000, 2.518234901657634E+08, -3.828586965383013E+08, -2.462657548338902E+07,
2459881.500000000, A.D. 2022-Oct-29 00:00:00.0000, 2.603052831384431E+08, -3.781710203163597E+08, -2.497082024611260E+07,
2459888.500000000, A.D. 2022-Nov-05 00:00:00.0000, 2.686570757828612E+08, -3.732944034333379E+08, -2.530259099941811E+07,
2459895.500000000, A.D. 2022-Nov-12 00:00:00.0000, 2.768754249388040E+08, -3.682322929015002E+08, -2.562179045941724E+07,
2459902.500000000, A.D. 2022-Nov-19 00:00:00.0000, 2.849569687501286E+08, -3.629881617398729E+08, -2.592832661137994E+07,
2459909.500000000, A.D. 2022-Nov-26 00:00:00.0000, 2.928984250393717E+08, -3.575655077539007E+08, -2.622211257788375E+07,
2459916.500000000, A.D. 2022-Dec-03 00:00:00.0000, 3.006965896606184E+08, -3.519678525028902E+08, -2.650306649399993E+07,
2459923.500000000, A.D. 2022-Dec-10 00:00:00.0000, 3.083483348778431E+08, -3.461987404326977E+08, -2.677111139220613E+07,
2459930.500000000, A.D. 2022-Dec-17 00:00:00.0000, 3.158506077942495E+08, -3.402617381947244E+08, -2.702617510130136E+07,
2459937.500000000, A.D. 2022-Dec-24 00:00:00.0000, 3.232004289420677E+08, -3.341604342124764E+08, -2.726819017461893E+07,
2459944.500000000, A.D. 2022-Dec-31 00:00:00.0000, 3.303948913906527E+08, -3.278984383829628E+08, -2.749709387136172E+07,
2459951.500000000, A.D. 2023-Jan-07 00:00:00.0000, 3.374311604966357E+08, -3.214793809456846E+08, -2.771282812345259E+07,
2459958.500000000, A.D. 2023-Jan-14 00:00:00.0000, 3.443064723304886E+08, -3.149069100183659E+08, -2.791533926671603E+07,
2459965.500000000, A.D. 2023-Jan-21 00:00:00.0000, 3.510181301357036E+08, -3.081846909677604E+08, -2.810457773645352E+07,
2459972.500000000, A.D. 2023-Jan-28 00:00:00.0000, 3.575635024901778E+08, -3.013164078065100E+08, -2.828049807982792E+07,
2459979.500000000, A.D. 2023-Feb-04 00:00:00.0000, 3.639400229639141E+08, -2.943057635856156E+08, -2.844305901851095E+07,
2459986.500000000, A.D. 2023-Feb-11 00:00:00.0000, 3.701451894797785E+08, -2.871564799747105E+08, -2.859222341268986E+07,
2459993.500000000, A.D. 2023-Feb-18 00:00:00.0000, 3.761765633148000E+08, -2.798722968515233E+08, -2.872795818775614E+07,
2460000.500000000, A.D. 2023-Feb-25 00:00:00.0000, 3.820317680050629E+08, -2.724569720597935E+08, -2.885023426078904E+07,
2460007.500000000, A.D. 2023-Mar-04 00:00:00.0000, 3.877084882566376E+08, -2.649142813139173E+08, -2.895902647442679E+07,
2460014.500000000, A.D. 2023-Mar-11 00:00:00.0000, 3.932044688914748E+08, -2.572480182468711E+08, -2.905431354044992E+07,
2460021.500000000, A.D. 2023-Mar-18 00:00:00.0000, 3.985175138754212E+08, -2.494619946479205E+08, -2.913607800117227E+07,
2460028.500000000, A.D. 2023-Mar-25 00:00:00.0000, 4.036454856315364E+08, -2.415600409339764E+08, -2.920430623086517E+07,
2460035.500000000, A.D. 2023-Apr-01 00:00:00.0000, 4.085863050637653E+08, -2.335460064574983E+08, -2.925898848371299E+07,
2460042.500000000, A.D. 2023-Apr-08 00:00:00.0000, 4.133379516775463E+08, -2.254237584232876E+08, -2.930011883149725E+07,
2460049.500000000, A.D. 2023-Apr-15 00:00:00.0000, 4.178984614620411E+08, -2.171971805193184E+08, -2.932769486688811E+07,
2460056.500000000, A.D. 2023-Apr-22 00:00:00.0000, 4.222659243426468E+08, -2.088701743118477E+08, -2.934171758757611E+07,
2460063.500000000, A.D. 2023-Apr-29 00:00:00.0000, 4.264384839382486E+08, -2.004466611487353E+08, -2.934219152790013E+07,
2460070.500000000, A.D. 2023-May-06 00:00:00.0000, 4.304143378638987E+08, -1.919305827871425E+08, -2.932912483094385E+07,
2460077.500000000, A.D. 2023-May-13 00:00:00.0000, 4.341917376032807E+08, -1.833259016372207E+08, -2.930252924461729E+07,
2460084.500000000, A.D. 2023-May-20 00:00:00.0000, 4.377689881859384E+08, -1.746366011110165E+08, -2.926242010349815E+07,
2460091.500000000, A.D. 2023-May-27 00:00:00.0000, 4.411444478635157E+08, -1.658666861041053E+08, -2.920881631680529E+07,
2460098.500000000, A.D. 2023-Jun-03 00:00:00.0000, 4.443165278434304E+08, -1.570201835820881E+08, -2.914174036592384E+07,
2460105.500000000, A.D. 2023-Jun-10 00:00:00.0000, 4.472836921046302E+08, -1.481011432839842E+08, -2.906121831507465E+07,
2460112.500000000, A.D. 2023-Jun-17 00:00:00.0000, 4.500444573850350E+08, -1.391136386010266E+08, -2.896727984849666E+07,
2460119.500000000, A.D. 2023-Jun-24 00:00:00.0000, 4.525973936605887E+08, -1.300617675732469E+08, -2.885995835919501E+07,
2460126.500000000, A.D. 2023-Jul-01 00:00:00.0000, 4.549411253693844E+08, -1.209496531728120E+08, -2.873929104495425E+07,
2460133.500000000, A.D. 2023-Jul-08 00:00:00.0000, 4.570743317093604E+08, -1.117814420495354E+08, -2.860531879104123E+07,
2460140.500000000, A.D. 2023-Jul-15 00:00:00.0000, 4.589957447354611E+08, -1.025613045676720E+08, -2.845808595397479E+07,
$$EOE